COMMENT,ORIGINATOR,NORAD_CAT_ID,OBJECT_NAME,OBJECT_TYPE,CLASSIFICATION_TYPE,INTLDES,EPOCH,EPOCH_MICROSECONDS,MEAN_MOTION,ECCENTRICITY,INCLINATION,RA_OF_ASC_NODE,ARG_OF_PERICENTER,MEAN_ANOMALY,EPHEMERIS_TYPE,ELEMENT_SET_NO,REV_AT_EPOCH,BSTAR,MEAN_MOTION_DOT,MEAN_MOTION_DDOT,FILE,TLE_LINE0,TLE_LINE1,TLE_LINE2,OBJECT_ID,OBJECT_NUMBER,SEMIMAJOR_AXIS,PERIOD,APOGEE,PERIGEE
GENERATED VIA SPACETRACK.ORG API,18 SPCS,41616,FLOCK 2P 5,PAYLOAD,U,16040T,10/2/2018 15:23,652384,15.24700494,0.0009347,97.4075,339.362,215.4559,144.6058,0,999,12659,6.13E-05,1.45E-05,0,2339393,0 FLOCK 2P 5,1 41616U 16040T   18275.64145431  .00001446  00000-0  61334-4 0  9996,2 41616  97.4075 339.3620 0009347 215.4559 144.6058 15.24700494126599,2016-040T,41616,6869.821,94.444,498.108,485.265
GENERATED VIA SPACETRACK.ORG API,18 SPCS,41616,FLOCK 2P 5,PAYLOAD,U,16040T,10/3/2018 3:59,381760,15.2470055,0.0009405,97.4074,339.8813,213.4855,146.5789,0,999,12667,5.30E-05,1.24E-05,0,2339842,0 FLOCK 2P 5,1 41616U 16040T   18276.16648590 +.00001240 +00000-0 +53025-4 0  9998,2 41616 097.4074 339.8813 0009405 213.4855 146.5789 15.24700550126673,2016-040T,41616,6869.821,94.444,498.147,485.225
GENERATED VIA SPACETRACK.ORG API,18 SPCS,41616,FLOCK 2P 5,PAYLOAD,U,16040T,10/3/2018 15:01,628160,15.24702269,0.0009449,97.4074,340.3356,211.6214,148.4457,0,999,12674,5.54E-05,1.30E-05,0,2340343,0 FLOCK 2P 5,1 41616U 16040T   18276.62588690 +.00001299 +00000-0 +55382-4 0  9995,2 41616 097.4074 340.3356 0009449 211.6214 148.4457 15.24702269126749,2016-040T,41616,6869.816,94.444,498.172,485.19
GENERATED VIA SPACETRACK.ORG API,18 SPCS,41616,FLOCK 2P 5,PAYLOAD,U,16040T,10/4/2018 2:02,848640,15.24703838,0.000949,97.4073,340.7899,209.9423,150.1273,0,999,12681,5.70E-05,1.34E-05,0,2340078,0 FLOCK 2P 5,1 41616U 16040T   18277.08528760  .00001339  00000-0  56990-4 0  9999,2 41616  97.4073 340.7899 0009490 209.9423 150.1273 15.24703838126819,2016-040T,41616,6869.811,94.444,498.196,485.157
GENERATED VIA SPACETRACK.ORG API,18 SPCS,41616,FLOCK 2P 5,PAYLOAD,U,16040T,10/4/2018 19:22,300320,15.24706095,0.0009555,97.4072,341.5038,207.1939,152.8799,0,999,12692,5.87E-05,1.38E-05,0,2340847,0 FLOCK 2P 5,1 41616U 16040T   18277.80720255 +.00001380 +00000-0 +58667-4 0  9991,2 41616 097.4072 341.5038 0009555 207.1939 152.8799 15.24706095126928,2016-040T,41616,6869.805,94.444,498.234,485.106
GENERATED VIA SPACETRACK.ORG API,18 SPCS,41616,FLOCK 2P 5,PAYLOAD,U,16040T,10/5/2018 3:14,832192,15.24707092,0.0009595,97.4072,341.8283,205.9445,154.1313,0,999,12697,5.88E-05,1.39E-05,0,2340613,0 FLOCK 2P 5,1 41616U 16040T   18278.13534528  .00001385  00000-0  58832-4 0  9993,2 41616  97.4072 341.8283 0009595 205.9445 154.1313 15.24707092126975,2016-040T,41616,6869.802,94.444,498.258,485.075
GENERATED VIA SPACETRACK.ORG API,18 SPCS,41616,FLOCK 2P 5,PAYLOAD,U,16040T,10/5/2018 15:50,325696,15.24708059,0.0009641,97.4072,342.3474,204.1289,155.9498,0,999,12705,5.64E-05,1.33E-05,0,2341045,0 FLOCK 2P 5,1 41616U 16040T   18278.66037414 +.00001325 +00000-0 +56427-4 0  9995,2 41616 097.4072 342.3474 0009641 204.1289 155.9498 15.24708059127059,2016-040T,41616,6869.799,94.444,498.287,485.041
GENERATED VIA SPACETRACK.ORG API,18 SPCS,41616,FLOCK 2P 5,PAYLOAD,U,16040T,10/6/2018 4:26,721568,15.24709428,0.0009686,97.4071,342.8666,202.3997,157.6819,0,999,12713,5.57E-05,1.31E-05,0,2341192,0 FLOCK 2P 5,1 41616U 16040T   18279.18540187  .00001306  00000-0  55665-4 0  9991,2 41616  97.4071 342.8666 0009686 202.3997 157.6819 15.24709428127137,2016-040T,41616,6869.795,94.444,498.314,485.006
GENERATED VIA SPACETRACK.ORG API,18 SPCS,41616,FLOCK 2P 5,PAYLOAD,U,16040T,10/6/2018 15:28,815040,15.24711273,0.000973,97.4071,343.3209,200.6932,159.3913,0,999,12720,6.08E-05,1.43E-05,0,2341567,0 FLOCK 2P 5,1 41616U 16040T   18279.64480110 +.00001433 +00000-0 +60800-4 0  9999,2 41616 097.4071 343.3209 0009730 200.6932 159.3913 15.24711273127209,2016-040T,41616,6869.789,94.444,498.338,484.97
GENERATED VIA SPACETRACK.ORG API,18 SPCS,41616,FLOCK 2P 5,PAYLOAD,U,16040T,10/7/2018 15:06,57280,15.24715777,0.0009825,97.407,344.2943,197.1412,162.9496,0,999,12735,7.20E-05,1.71E-05,0,2341916,0 FLOCK 2P 5,1 41616U 16040T   18280.62922520 +.00001711 +00000-0 +72001-4 0  9990,2 41616 097.4070 344.2943 0009825 197.1412 162.9496 15.24715777127356,2016-040T,41616,6869.776,94.443,498.39,484.891
GENERATED VIA SPACETRACK.ORG API,18 SPCS,41616,FLOCK 2P 5,PAYLOAD,U,16040T,10/8/2018 14:43,22176,15.24720799,0.000993,97.4069,345.2677,193.6011,166.4961,0,999,12750,8.34E-05,1.99E-05,0,2342280,0 FLOCK 2P 5,1 41616U 16040T   18281.61364609  .00001993  00000-0  83389-4 0  9991,2 41616  97.4069 345.2677 0009930 193.6011 166.4961 15.24720799127505,2016-040T,41616,6869.76,94.443,498.447,484.804
GENERATED VIA SPACETRACK.ORG API,18 SPCS,41616,FLOCK 2P 5,PAYLOAD,U,16040T,10/8/2018 22:36,357056,15.24721389,0.000996,97.4068,345.5922,192.4395,167.6598,0,999,12755,8.06E-05,1.93E-05,0,2342308,0 FLOCK 2P 5,1 41616U 16040T   18281.94178654 +.00001925 +00000-0 +80637-4 0  9998,2 41616 097.4068 345.5922 0009960 192.4395 167.6598 15.24721389127555,2016-040T,41616,6869.759,94.443,498.466,484.781
GENERATED VIA SPACETRACK.ORG API,18 SPCS,41616,FLOCK 2P 5,PAYLOAD,U,16040T,10/9/2018 15:55,226400,15.24722539,0.001005,97.4068,346.306,189.8056,170.2987,0,999,12766,7.27E-05,1.73E-05,0,2342829,0 FLOCK 2P 5,1 41616U 16040T   18282.66369475  .00001730  00000-0  72739-4 0  9999,2 41616  97.4068 346.3060 0010050 189.8056 170.2987 15.24722539127665,2016-040T,41616,6869.755,94.443,498.524,484.716
GENERATED VIA SPACETRACK.ORG API,18 SPCS,41616,FLOCK 2P 5,PAYLOAD,U,16040T,10/10/2018 10:49,159680,15.24725822,0.0010141,97.4066,347.0847,187.0248,173.0849,0,999,12778,7.73E-05,1.84E-05,0,2343266,0 FLOCK 2P 5,1 41616U 16040T   18283.45122870 +.00001842 +00000-0 +77271-4 0  9993,2 41616 097.4066 347.0847 0010141 187.0248 173.0849 15.24725822127787,2016-040T,41616,6869.745,94.443,498.577,484.644
GENERATED VIA SPACETRACK.ORG API,18 SPCS,41616,FLOCK 2P 5,PAYLOAD,U,16040T,10/10/2018 15:33,952832,15.24725078,0.0010165,97.4066,347.2795,186.4051,173.7058,0,999,12781,6.82E-05,1.62E-05,0,2343721,0 FLOCK 2P 5,1 41616U 16040T   18283.64811288 +.00001619 +00000-0 +68244-4 0  9994,2 41616 097.4066 347.2795 0010165 186.4051 173.7058 15.24725078127818,2016-040T,41616,6869.748,94.443,498.596,484.629
GENERATED VIA SPACETRACK.ORG API,18 SPCS,41616,FLOCK 2P 5,PAYLOAD,U,16040T,10/11/2018 4:09,826848,15.24726648,0.0010226,97.4065,347.7985,184.5593,175.5553,0,999,12789,6.56E-05,1.55E-05,0,2343549,0 FLOCK 2P 5,1 41616U 16040T   18284.17313457  .00001554  00000-0  65619-4 0  9999,2 41616  97.4065 347.7985 0010226 184.5593 175.5553 15.24726648127893,2016-040T,41616,6869.743,94.443,498.633,484.583
GENERATED VIA SPACETRACK.ORG API,18 SPCS,41616,FLOCK 2P 5,PAYLOAD,U,16040T,10/11/2018 13:36,204928,15.24728061,0.0010264,97.4064,348.1879,183.1036,177.014,0,999,12795,6.55E-05,1.55E-05,0,2343880,0 FLOCK 2P 5,1 41616U 16040T   18284.56690052 +.00001552 +00000-0 +65537-4 0  9998,2 41616 097.4064 348.1879 0010264 183.1036 177.0140 15.24728061127955,2016-040T,41616,6869.739,94.443,498.655,484.553
GENERATED VIA SPACETRACK.ORG API,18 SPCS,41616,FLOCK 2P 5,PAYLOAD,U,16040T,10/11/2018 18:19,896128,15.24728148,0.0010293,97.4064,348.3826,182.4552,177.6637,0,999,12798,6.09E-05,1.44E-05,0,2344207,0 FLOCK 2P 5,1 41616U 16040T   18284.76378352 +.00001436 +00000-0 +60867-4 0  9998,2 41616 097.4064 348.3826 0010293 182.4552 177.6637 15.24728148127982,2016-040T,41616,6869.738,94.443,498.674,484.532
GENERATED VIA SPACETRACK.ORG API,18 SPCS,41616,FLOCK 2P 5,PAYLOAD,U,16040T,10/12/2018 3:46,238784,15.24729283,0.0010331,97.4063,348.7719,181.0741,179.0476,0,999,12804,5.95E-05,1.40E-05,0,2344367,0 FLOCK 2P 5,1 41616U 16040T   18285.15754906 +.00001402 +00000-0 +59502-4 0  9992,2 41616 097.4063 348.7719 0010331 181.0741 179.0476 15.24729283128040,2016-040T,41616,6869.735,94.442,498.697,484.503
GENERATED VIA SPACETRACK.ORG API,18 SPCS,41616,FLOCK 2P 5,PAYLOAD,U,16040T,10/12/2018 17:57,253632,15.24730509,0.0010406,97.4062,349.356,178.9523,181.1739,0,999,12813,5.54E-05,1.30E-05,0,2344349,0 FLOCK 2P 5,1 41616U 16040T   18285.74819738  .00001302  00000-0  55434-4 0  9991,2 41616  97.4062 349.3560 0010406 178.9523 181.1739 15.24730509128135,2016-040T,41616,6869.731,94.442,498.745,484.448
GENERATED VIA SPACETRACK.ORG API,18 SPCS,41616,FLOCK 2P 5,PAYLOAD,U,16040T,10/13/2018 12:51,793792,15.24733087,0.0010494,97.406,350.1347,176.1924,183.9396,0,999,12825,5.56E-05,1.31E-05,0,2344876,0 FLOCK 2P 5,1 41616U 16040T   18286.53572678 +.00001307 +00000-0 +55632-4 0  9993,2 41616 097.4060 350.1347 0010494 176.1924 183.9396 15.24733087128254,2016-040T,41616,6869.724,94.442,498.798,484.379
GENERATED VIA SPACETRACK.ORG API,18 SPCS,41616,FLOCK 2P 5,PAYLOAD,U,16040T,10/13/2018 19:09,615456,15.24733806,0.0010519,97.406,350.3942,175.2878,184.8461,0,999,12829,5.45E-05,1.28E-05,0,2344860,0 FLOCK 2P 5,1 41616U 16040T   18286.79823629  .00001278  00000-0  54479-4 0  9991,2 41616  97.4060 350.3942 0010519 175.2878 184.8461 15.24733806128299,2016-040T,41616,6869.721,94.442,498.813,484.36
GENERATED VIA SPACETRACK.ORG API,18 SPCS,41616,FLOCK 2P 5,PAYLOAD,U,16040T,10/14/2018 3:01,564128,15.24735601,0.0010541,97.4059,350.7186,174.2111,185.9251,0,999,12834,5.83E-05,1.37E-05,0,2345218,0 FLOCK 2P 5,1 41616U 16040T   18287.12637227 +.00001372 +00000-0 +58266-4 0  9999,2 41616 097.4059 350.7186 0010541 174.2111 185.9251 15.24735601128345,2016-040T,41616,6869.716,94.442,498.822,484.34
GENERATED VIA SPACETRACK.ORG API,18 SPCS,41616,FLOCK 2P 5,PAYLOAD,U,16040T,10/15/2018 4:14,601088,15.24739891,0.001064,97.4057,351.7569,170.6559,189.4879,0,999,12850,6.34E-05,1.50E-05,0,2345500,0 FLOCK 2P 5,1 41616U 16040T   18288.17640742  .00001499  00000-0  63381-4 0  9995,2 41616  97.4057 351.7569 0010640 170.6559 189.4879 15.24739891128503,2016-040T,41616,6869.703,94.442,498.877,484.259
